[{"OBJECT_NAME":"BEIDOU-2 G4","OBJECT_ID":"2010-057A","EPOCH":"2026-04-04T20:23:32.428032","MEAN_MOTION":1.00271597,"ECCENTRICITY":0.00072644,"INCLINATION":3.4656,"RA_OF_ASC_NODE":69.3601,"ARG_OF_PERICENTER":215.4308,"MEAN_ANOMALY":14.2588,"EPHEMERIS_TYPE":0,"CLASSIFICATION_TYPE":"U","NORAD_CAT_ID":37210,"ELEMENT_SET_NO":999,"REV_AT_EPOCH":5655,"BSTAR":0,"MEAN_MOTION_DOT":-1.1e-6,"MEAN_MOTION_DDOT":0},{"OBJECT_NAME":"MERIDIAN 3","OBJECT_ID":"2010-058A","EPOCH":"2026-04-03T01:24:06.592032","MEAN_MOTION":2.00594474,"ECCENTRICITY":0.67930131,"INCLINATION":63.4559,"RA_OF_ASC_NODE":99.9043,"ARG_OF_PERICENTER":261.1797,"MEAN_ANOMALY":22.5916,"EPHEMERIS_TYPE":0,"CLASSIFICATION_TYPE":"U","NORAD_CAT_ID":37212,"ELEMENT_SET_NO":999,"REV_AT_EPOCH":11295,"BSTAR":0,"MEAN_MOTION_DOT":3.0e-8,"MEAN_MOTION_DDOT":0},{"OBJECT_NAME":"SKYTERRA 1","OBJECT_ID":"2010-061A","EPOCH":"2026-04-04T20:51:44.723232","MEAN_MOTION":1.0027203,"ECCENTRICITY":0.00025287,"INCLINATION":4.9703,"RA_OF_ASC_NODE":50.8881,"ARG_OF_PERICENTER":3.1861,"MEAN_ANOMALY":350.7163,"EPHEMERIS_TYPE":0,"CLASSIFICATION_TYPE":"U","NORAD_CAT_ID":37218,"ELEMENT_SET_NO":999,"REV_AT_EPOCH":5645,"BSTAR":0,"MEAN_MOTION_DOT":-1.16e-6,"MEAN_MOTION_DDOT":0},{"OBJECT_NAME":"DELTA 4 R/B","OBJECT_ID":"2010-063B","EPOCH":"2026-04-04T00:03:14.469120","MEAN_MOTION":1.0404017,"ECCENTRICITY":0.02104197,"INCLINATION":9.2285,"RA_OF_ASC_NODE":82.7235,"ARG_OF_PERICENTER":63.9853,"MEAN_ANOMALY":298.2361,"EPHEMERIS_TYPE":0,"CLASSIFICATION_TYPE":"U","NORAD_CAT_ID":37233,"ELEMENT_SET_NO":999,"REV_AT_EPOCH":2553,"BSTAR":0,"MEAN_MOTION_DOT":-2.16e-6,"MEAN_MOTION_DDOT":0},{"OBJECT_NAME":"HYLAS 1","OBJECT_ID":"2010-065A","EPOCH":"2026-04-04T20:40:34.703328","MEAN_MOTION":1.00272539,"ECCENTRICITY":0.00019292,"INCLINATION":5.458,"RA_OF_ASC_NODE":73.9023,"ARG_OF_PERICENTER":288.5041,"MEAN_ANOMALY":154.7091,"EPHEMERIS_TYPE":0,"CLASSIFICATION_TYPE":"U","NORAD_CAT_ID":37237,"ELEMENT_SET_NO":999,"REV_AT_EPOCH":615,"BSTAR":0,"MEAN_MOTION_DOT":9.2e-7,"MEAN_MOTION_DDOT":0},{"OBJECT_NAME":"INTELSAT 17 (IS-17)","OBJECT_ID":"2010-065B","EPOCH":"2026-04-04T21:42:21.626208","MEAN_MOTION":1.00271555,"ECCENTRICITY":0.00024448,"INCLINATION":0.0127,"RA_OF_ASC_NODE":187.4013,"ARG_OF_PERICENTER":197.1799,"MEAN_ANOMALY":200.2154,"EPHEMERIS_TYPE":0,"CLASSIFICATION_TYPE":"U","NORAD_CAT_ID":37238,"ELEMENT_SET_NO":999,"REV_AT_EPOCH":5251,"BSTAR":0,"MEAN_MOTION_DOT":-1.0e-8,"MEAN_MOTION_DDOT":0},{"OBJECT_NAME":"BEIDOU-2 IGSO-2","OBJECT_ID":"2010-068A","EPOCH":"2026-03-27T10:45:38.648736","MEAN_MOTION":1.00251076,"ECCENTRICITY":0.00480708,"INCLINATION":47.6922,"RA_OF_ASC_NODE":272.8379,"ARG_OF_PERICENTER":212.2935,"MEAN_ANOMALY":326.6285,"EPHEMERIS_TYPE":0,"CLASSIFICATION_TYPE":"U","NORAD_CAT_ID":37256,"ELEMENT_SET_NO":999,"REV_AT_EPOCH":5597,"BSTAR":0,"MEAN_MOTION_DOT":-1.75e-6,"MEAN_MOTION_DDOT":0},{"OBJECT_NAME":"EUTELSAT KA-SAT 9A","OBJECT_ID":"2010-069A","EPOCH":"2026-04-03T19:43:00.078816","MEAN_MOTION":1.00269682,"ECCENTRICITY":0.00034963,"INCLINATION":0.0602,"RA_OF_ASC_NODE":1.2423,"ARG_OF_PERICENTER":135.8807,"MEAN_ANOMALY":359.7614,"EPHEMERIS_TYPE":0,"CLASSIFICATION_TYPE":"U","NORAD_CAT_ID":37258,"ELEMENT_SET_NO":999,"REV_AT_EPOCH":4326,"BSTAR":0,"MEAN_MOTION_DOT":6.0e-7,"MEAN_MOTION_DDOT":0},{"OBJECT_NAME":"HISPASAT 30W-5","OBJECT_ID":"2010-070A","EPOCH":"2026-04-04T21:12:03.447072","MEAN_MOTION":1.00272398,"ECCENTRICITY":0.00042386,"INCLINATION":0.0391,"RA_OF_ASC_NODE":114.1775,"ARG_OF_PERICENTER":288.7312,"MEAN_ANOMALY":78.3132,"EPHEMERIS_TYPE":0,"CLASSIFICATION_TYPE":"U","NORAD_CAT_ID":37264,"ELEMENT_SET_NO":999,"REV_AT_EPOCH":5245,"BSTAR":0,"MEAN_MOTION_DOT":-2.15e-6,"MEAN_MOTION_DDOT":0},{"OBJECT_NAME":"KOREASAT 6","OBJECT_ID":"2010-070B","EPOCH":"2026-04-04T20:23:32.428032","MEAN_MOTION":1.00270469,"ECCENTRICITY":0.00023615,"INCLINATION":0.0192,"RA_OF_ASC_NODE":213.6068,"ARG_OF_PERICENTER":167.2564,"MEAN_ANOMALY":278.0772,"EPHEMERIS_TYPE":0,"CLASSIFICATION_TYPE":"U","NORAD_CAT_ID":37265,"ELEMENT_SET_NO":999,"REV_AT_EPOCH":5603,"BSTAR":0,"MEAN_MOTION_DOT":0,"MEAN_MOTION_DDOT":0},{"OBJECT_NAME":"ELEKTRO-L 1 (GOMS 2)","OBJECT_ID":"2011-001A","EPOCH":"2026-04-04T20:57:21.684096","MEAN_MOTION":1.00164929,"ECCENTRICITY":0.00040201,"INCLINATION":9.5214,"RA_OF_ASC_NODE":55.2363,"ARG_OF_PERICENTER":14.7639,"MEAN_ANOMALY":356.0477,"EPHEMERIS_TYPE":0,"CLASSIFICATION_TYPE":"U","NORAD_CAT_ID":37344,"ELEMENT_SET_NO":999,"REV_AT_EPOCH":5575,"BSTAR":0,"MEAN_MOTION_DOT":-2.14e-6,"MEAN_MOTION_DDOT":0},{"OBJECT_NAME":"FREGAT R/B","OBJECT_ID":"2011-001B","EPOCH":"2026-04-04T15:13:38.883648","MEAN_MOTION":1.0279919,"ECCENTRICITY":0.01513255,"INCLINATION":10.1023,"RA_OF_ASC_NODE":43.0395,"ARG_OF_PERICENTER":68.9731,"MEAN_ANOMALY":133.864,"EPHEMERIS_TYPE":0,"CLASSIFICATION_TYPE":"U","NORAD_CAT_ID":37345,"ELEMENT_SET_NO":999,"REV_AT_EPOCH":5964,"BSTAR":0,"MEAN_MOTION_DOT":-2.3e-7,"MEAN_MOTION_DDOT":0},{"OBJECT_NAME":"BEIDOU-2 IGSO-3","OBJECT_ID":"2011-013A","EPOCH":"2026-04-04T18:26:31.166592","MEAN_MOTION":1.00286193,"ECCENTRICITY":0.00342859,"INCLINATION":62.3137,"RA_OF_ASC_NODE":40.8446,"ARG_OF_PERICENTER":189.4563,"MEAN_ANOMALY":347.0219,"EPHEMERIS_TYPE":0,"CLASSIFICATION_TYPE":"U","NORAD_CAT_ID":37384,"ELEMENT_SET_NO":999,"REV_AT_EPOCH":5492,"BSTAR":0,"MEAN_MOTION_DOT":-1.88e-6,"MEAN_MOTION_DDOT":0},{"OBJECT_NAME":"INTELSAT 28 (IS-28)","OBJECT_ID":"2011-016A","EPOCH":"2026-04-04T21:11:33.494784","MEAN_MOTION":1.0027196,"ECCENTRICITY":0.00045314,"INCLINATION":1.6168,"RA_OF_ASC_NODE":83.51,"ARG_OF_PERICENTER":297.8112,"MEAN_ANOMALY":98.0542,"EPHEMERIS_TYPE":0,"CLASSIFICATION_TYPE":"U","NORAD_CAT_ID":37392,"ELEMENT_SET_NO":999,"REV_AT_EPOCH":5255,"BSTAR":0,"MEAN_MOTION_DOT":-2.23e-6,"MEAN_MOTION_DDOT":0},{"OBJECT_NAME":"YAHSAT 1A","OBJECT_ID":"2011-016B","EPOCH":"2026-04-04T21:35:37.870368","MEAN_MOTION":1.0027141,"ECCENTRICITY":0.0002995,"INCLINATION":0.0063,"RA_OF_ASC_NODE":163.2868,"ARG_OF_PERICENTER":224.7873,"MEAN_ANOMALY":181.5318,"EPHEMERIS_TYPE":0,"CLASSIFICATION_TYPE":"U","NORAD_CAT_ID":37393,"ELEMENT_SET_NO":999,"REV_AT_EPOCH":4167,"BSTAR":0,"MEAN_MOTION_DOT":1.02e-6,"MEAN_MOTION_DDOT":0},{"OBJECT_NAME":"MERIDIAN 4","OBJECT_ID":"2011-018A","EPOCH":"2026-03-27T07:06:27.762624","MEAN_MOTION":2.0205229,"ECCENTRICITY":0.75096168,"INCLINATION":62.0768,"RA_OF_ASC_NODE":86.8592,"ARG_OF_PERICENTER":264.8296,"MEAN_ANOMALY":14.5762,"EPHEMERIS_TYPE":0,"CLASSIFICATION_TYPE":"U","NORAD_CAT_ID":37398,"ELEMENT_SET_NO":999,"REV_AT_EPOCH":10912,"BSTAR":0.0021546486,"MEAN_MOTION_DOT":0.00018792,"MEAN_MOTION_DDOT":0},{"OBJECT_NAME":"SBIRS GEO-1 (USA 230)","OBJECT_ID":"2011-019A","EPOCH":"2026-04-04T21:35:22.893792","MEAN_MOTION":1.00272449,"ECCENTRICITY":0.00022107,"INCLINATION":4.376,"RA_OF_ASC_NODE":53.1095,"ARG_OF_PERICENTER":317.5315,"MEAN_ANOMALY":198.2141,"EPHEMERIS_TYPE":0,"CLASSIFICATION_TYPE":"U","NORAD_CAT_ID":37481,"ELEMENT_SET_NO":999,"REV_AT_EPOCH":5466,"BSTAR":0,"MEAN_MOTION_DOT":1.02e-6,"MEAN_MOTION_DDOT":0},{"OBJECT_NAME":"TELSTAR 14R","OBJECT_ID":"2011-021A","EPOCH":"2026-04-04T21:02:34.357056","MEAN_MOTION":1.00269165,"ECCENTRICITY":0.00024138,"INCLINATION":0.0175,"RA_OF_ASC_NODE":216.9846,"ARG_OF_PERICENTER":163.5977,"MEAN_ANOMALY":65.241,"EPHEMERIS_TYPE":0,"CLASSIFICATION_TYPE":"U","NORAD_CAT_ID":37602,"ELEMENT_SET_NO":999,"REV_AT_EPOCH":5509,"BSTAR":0,"MEAN_MOTION_DOT":0,"MEAN_MOTION_DDOT":0},{"OBJECT_NAME":"GSAT-8","OBJECT_ID":"2011-022A","EPOCH":"2026-04-04T21:36:15.310080","MEAN_MOTION":1.00271969,"ECCENTRICITY":0.00056572,"INCLINATION":1.9418,"RA_OF_ASC_NODE":82.7034,"ARG_OF_PERICENTER":224.7448,"MEAN_ANOMALY":264.8776,"EPHEMERIS_TYPE":0,"CLASSIFICATION_TYPE":"U","NORAD_CAT_ID":37605,"ELEMENT_SET_NO":999,"REV_AT_EPOCH":5248,"BSTAR":0,"MEAN_MOTION_DOT":8.6e-7,"MEAN_MOTION_DDOT":0},{"OBJECT_NAME":"ST-2","OBJECT_ID":"2011-022B","EPOCH":"2026-04-04T21:25:38.726112","MEAN_MOTION":1.00273532,"ECCENTRICITY":0.00019408,"INCLINATION":0.0151,"RA_OF_ASC_NODE":221.7017,"ARG_OF_PERICENTER":162.8055,"MEAN_ANOMALY":218.1105,"EPHEMERIS_TYPE":0,"CLASSIFICATION_TYPE":"U","NORAD_CAT_ID":37606,"ELEMENT_SET_NO":999,"REV_AT_EPOCH":5454,"BSTAR":0,"MEAN_MOTION_DOT":-2.11e-6,"MEAN_MOTION_DDOT":0},{"OBJECT_NAME":"ZHONGXING-10","OBJECT_ID":"2011-026A","EPOCH":"2026-04-04T21:44:59.472096","MEAN_MOTION":1.00270896,"ECCENTRICITY":0.00027682,"INCLINATION":0.8578,"RA_OF_ASC_NODE":85.0234,"ARG_OF_PERICENTER":307.7283,"MEAN_ANOMALY":212.2717,"EPHEMERIS_TYPE":0,"CLASSIFICATION_TYPE":"U","NORAD_CAT_ID":37677,"ELEMENT_SET_NO":999,"REV_AT_EPOCH":5426,"BSTAR":0,"MEAN_MOTION_DOT":-1.88e-6,"MEAN_MOTION_DDOT":0},{"OBJECT_NAME":"SES-3","OBJECT_ID":"2011-035A","EPOCH":"2026-04-04T12:17:45.960000","MEAN_MOTION":1.00271518,"ECCENTRICITY":0.0003458,"INCLINATION":1.1362,"RA_OF_ASC_NODE":83.8506,"ARG_OF_PERICENTER":295.8621,"MEAN_ANOMALY":254.5472,"EPHEMERIS_TYPE":0,"CLASSIFICATION_TYPE":"U","NORAD_CAT_ID":37748,"ELEMENT_SET_NO":999,"REV_AT_EPOCH":5385,"BSTAR":0,"MEAN_MOTION_DOT":-1.01e-6,"MEAN_MOTION_DDOT":0},{"OBJECT_NAME":"KAZSAT-2","OBJECT_ID":"2011-035B","EPOCH":"2026-04-04T21:25:38.726112","MEAN_MOTION":1.00270578,"ECCENTRICITY":0.00013578,"INCLINATION":0.0389,"RA_OF_ASC_NODE":323.67,"ARG_OF_PERICENTER":121.7878,"MEAN_ANOMALY":155.6576,"EPHEMERIS_TYPE":0,"CLASSIFICATION_TYPE":"U","NORAD_CAT_ID":37749,"ELEMENT_SET_NO":999,"REV_AT_EPOCH":5266,"BSTAR":0,"MEAN_MOTION_DOT":-1.97e-6,"MEAN_MOTION_DDOT":0},{"OBJECT_NAME":"BREEZE-M R/B","OBJECT_ID":"2011-035D","EPOCH":"2026-04-04T21:32:09.019968","MEAN_MOTION":1.12713456,"ECCENTRICITY":0.07718804,"INCLINATION":9.2971,"RA_OF_ASC_NODE":34.8129,"ARG_OF_PERICENTER":63.1213,"MEAN_ANOMALY":89.6686,"EPHEMERIS_TYPE":0,"CLASSIFICATION_TYPE":"U","NORAD_CAT_ID":37751,"ELEMENT_SET_NO":999,"REV_AT_EPOCH":6055,"BSTAR":0,"MEAN_MOTION_DOT":-1.46e-6,"MEAN_MOTION_DDOT":0}]
